NORAD_CAT_ID,OBJECT_NAME,OBJECT_TYPE,EPOCH,MEAN_MOTION,ECCENTRICITY,INCLINATION,RA_OF_ASC_NODE,ARG_OF_PERICENTER,MEAN_ANOMALY,BSTAR,MEAN_MOTION_DOT,MEAN_MOTION_DDOT,TLE_LINE0,TLE_LINE1,TLE_LINE2,SEMIMAJOR_AXIS,PERIOD,APOGEE,PERIGEE,DECAYED
52840.0,STARLINK-4049,PAYLOAD,2023-03-31 06:18:03,15.08845394,0.0001172,53.2147,177.4101,85.6341,274.4785,0.0011524,0.00018103,0.0,0 STARLINK-4049,1 52840U 22062L   23090.26254365  .00018103  00000-0  11524-2 0  9996,2 52840  53.2147 177.4101 0001172  85.6341 274.4785 15.08845394 44071,6917.864,95.437,540.54,538.918,0.0
52840.0,STARLINK-4049,PAYLOAD,2023-03-31 15:50:22,15.08885678,0.0001174,53.215,175.6264,86.401,273.7116,0.0032506,0.00051891,0.0,0 STARLINK-4049,1 52840U 22062L   23090.65997690  .00051891  00000-0  32506-2 0  9998,2 52840  53.2150 175.6264 0001174  86.4010 273.7116 15.08885678 44135,6917.741,95.435,540.418,538.794,0.0
52840.0,STARLINK-4049,PAYLOAD,2023-04-01 06:08:50,15.08829133,0.0001182,53.2155,172.9493,118.4209,241.6902,0.00033432,5.035e-05,0.0,0 STARLINK-4049,1 52840U 22062L   23091.25614477  .00005035  00000-0  33432-3 0  9993,2 52840  53.2155 172.9493 0001182 118.4209 241.6902 15.08829133 44220,6917.914,95.438,540.596,538.961,0.0
52840.0,STARLINK-4049,PAYLOAD,2023-04-01 14:05:47,15.08830635,0.0001616,53.2166,171.4671,123.418,236.6966,0.0013534,0.00021311,0.0,0 STARLINK-4049,1 52840U 22062L   23091.58735033  .00021311  00000-0  13534-2 0  9996,2 52840  53.2166 171.4671 0001616 123.4180 236.6966 15.08830635 43783,6917.909,95.438,540.892,538.656,0.0
52840.0,STARLINK-4049,PAYLOAD,2023-04-02 12:21:10,15.08857146,0.0001234,53.2147,167.3012,108.4513,251.6613,0.0011701,0.00018392,0.0,0 STARLINK-4049,1 52840U 22062L   23092.51470858  .00018392  00000-0  11701-2 0  9990,2 52840  53.2147 167.3012 0001234 108.4513 251.6613 15.08857146 44417,6917.828,95.436,540.547,538.839,0.0
52840.0,STARLINK-4049,PAYLOAD,2023-04-02 21:53:29,15.08840151,0.0001142,53.2149,165.5174,133.8038,226.3048,0.00017929,2.567e-05,0.0,0 STARLINK-4049,1 52840U 22062L   23092.91214658  .00002567  00000-0  17929-3 0  9994,2 52840  53.2149 165.5174 0001142 133.8038 226.3048 15.08840151 43980,6917.88,95.438,540.535,538.955,0.0
52840.0,STARLINK-4049,PAYLOAD,2023-04-03 04:15:02,15.08838157,0.0001388,53.2146,164.3281,120.5697,239.5433,-2.0287e-05,-6.11e-06,0.0,0 STARLINK-4049,1 52840U 22062L   23093.17710864 -.00000611  00000-0 -20287-4 0  9995,2 52840  53.2146 164.3281 0001388 120.5697 239.5433 15.08838157 44516,6917.886,95.438,540.711,538.791,0.0
52840.0,STARLINK-4049,PAYLOAD,2023-04-03 13:47:21,15.08842608,0.0001288,53.2147,162.5432,116.0558,244.0567,0.00035195,5.318e-05,0.0,0 STARLINK-4049,1 52840U 22062L   23093.57454975  .00005318  00000-0  35195-3 0  9997,2 52840  53.2147 162.5432 0001288 116.0558 244.0567 15.08842608 44087,6917.872,95.437,540.628,538.846,0.0
52840.0,STARLINK-4049,PAYLOAD,2023-04-04 10:27:22,15.0884729,0.0001392,53.2148,158.6768,104.98,255.1346,0.000711,0.00011048,0.0,0 STARLINK-4049,1 52840U 22062L   23094.43567301  .00011048  00000-0  71100-3 0  9994,2 52840  53.2148 158.6768 0001392 104.9800 255.1346 15.08847290 44707,6917.858,95.437,540.686,538.76,0.0
52840.0,STARLINK-4049,PAYLOAD,2023-04-04 16:48:54,15.08855559,0.00013,53.214,157.4859,110.9024,249.2107,0.00086049,0.00013439,0.0,0 STARLINK-4049,1 52840U 22062L   23094.70062968  .00013439  00000-0  86049-3 0  9997,2 52840  53.2140 157.4859 0001300 110.9024 249.2107 15.08855559 44257,6917.833,95.437,540.597,538.799,0.0
52840.0,STARLINK-4049,PAYLOAD,2023-04-05 10:18:09,15.08837648,0.0002315,53.2153,154.2162,140.9289,219.1871,1.8884e-05,1.2e-07,0.0,0 STARLINK-4049,1 52840U 22062L   23095.42927215  .00000012  00000-0  18884-4 0  9998,2 52840  53.2153 154.2162 0002315 140.9289 219.1871 15.08837648 44361,6917.888,95.438,541.354,538.151,0.0
52840.0,STARLINK-4049,PAYLOAD,2023-04-05 15:04:18,15.08846233,0.0001154,53.2138,153.3238,100.1727,259.9395,0.00030973,4.646e-05,0.0,0 STARLINK-4049,1 52840U 22062L   23095.62799358  .00004646  00000-0  30973-3 0  9994,2 52840  53.2138 153.3238 0001154 100.1727 259.9395 15.08846233 44399,6917.861,95.437,540.525,538.928,0.0
52840.0,STARLINK-4049,PAYLOAD,2023-04-06 13:19:42,15.088463,0.0001278,53.2141,149.16,88.5835,271.5303,0.00024123,3.554e-05,0.0,0 STARLINK-4049,1 52840U 22062L   23096.55535401  .00003554  00000-0  24123-3 0  9991,2 52840  53.2141 149.1600 0001278  88.5835 271.5303 15.08846300 45020,6917.861,95.437,540.61,538.842,0.0
52840.0,STARLINK-4049,PAYLOAD,2023-04-06 14:55:05,15.08849759,0.0001297,53.2144,148.8629,89.3944,270.7197,0.00030099,4.507e-05,0.0,0 STARLINK-4049,1 52840U 22062L   23096.62159244  .00004507  00000-0  30099-3 0  9994,2 52840  53.2144 148.8629 0001297  89.3944 270.7197 15.08849759 44540,6917.851,95.437,540.613,538.818,0.0
52840.0,STARLINK-4049,PAYLOAD,2023-04-07 13:10:29,15.08850927,0.0001266,53.2151,144.7003,87.0351,273.0786,0.0002537,3.753e-05,0.0,0 STARLINK-4049,1 52840U 22062L   23097.54895008  .00003753  00000-0  25370-3 0  9999,2 52840  53.2151 144.7003 0001266  87.0351 273.0786 15.08850927 44686,6917.847,95.437,540.588,538.836,0.0
52840.0,STARLINK-4049,PAYLOAD,2023-04-08 05:04:20,15.08843584,0.0001341,53.2144,141.727,81.662,278.4524,7.975e-05,9.82e-06,0.0,0 STARLINK-4049,1 52840U 22062L   23098.21135243  .00000982  00000-0  79750-4 0  9995,2 52840  53.2144 141.7270 0001341  81.6620 278.4524 15.08843584 45270,6917.869,95.437,540.662,538.807,0.0
52840.0,STARLINK-4049,PAYLOAD,2023-04-08 11:25:53,15.08849427,0.0001369,53.2142,140.5357,95.5619,264.5529,0.00014133,1.963e-05,0.0,0 STARLINK-4049,1 52840U 22062L   23098.47630842  .00001963  00000-0  14133-3 0  9991,2 52840  53.2142 140.5357 0001369  95.5619 264.5529 15.08849427 44826,6917.852,95.437,540.664,538.77,0.0
52840.0,STARLINK-4049,PAYLOAD,2023-04-09 08:05:54,15.08836981,0.0001406,53.2153,136.6717,93.7105,266.4048,-2.3721e-05,-6.65e-06,0.0,0 STARLINK-4049,1 52840U 22062L   23099.33743399 -.00000665  00000-0 -23721-4 0  9993,2 52840  53.2153 136.6717 0001406  93.7105 266.4048 15.08836981 45443,6917.89,95.438,540.727,538.782,0.0
52840.0,STARLINK-4049,PAYLOAD,2023-04-09 19:13:36,15.08837278,0.0001368,53.2152,134.5902,90.2763,269.8385,-4.9619e-05,-1.077e-05,0.0,0 STARLINK-4049,1 52840U 22062L   23099.80111401 -.00001077  00000-0 -49619-4 0  9990,2 52840  53.2152 134.5902 0001368  90.2763 269.8385 15.08837278 45029,6917.889,95.438,540.7,538.807,0.0
52840.0,STARLINK-4049,PAYLOAD,2023-04-10 11:07:27,15.08840783,0.0001437,53.2161,131.6159,94.6299,265.4857,0.00021613,3.154e-05,0.0,0 STARLINK-4049,1 52840U 22062L   23100.46351273  .00003154  00000-0  21613-3 0  9997,2 52840  53.2161 131.6159 0001437  94.6299 265.4857 15.08840783 45616,6917.878,95.438,540.737,538.749,0.0
52840.0,STARLINK-4049,PAYLOAD,2023-04-10 19:04:23,15.08843039,0.0001252,53.2161,130.1301,94.4591,265.6544,3.9054e-05,3.34e-06,0.0,0 STARLINK-4049,1 52840U 22062L   23100.79471304  .00000334  00000-0  39054-4 0  9997,2 52840  53.2161 130.1301 0001252  94.4591 265.6544 15.08843039 45170,6917.871,95.437,540.602,538.87,0.0
52840.0,STARLINK-4049,PAYLOAD,2023-04-11 04:36:42,15.08837172,0.0001414,53.2149,128.3434,81.6355,278.4797,0.00012067,1.633e-05,0.0,0 STARLINK-4049,1 52840U 22062L   23101.19215706  .00001633  00000-0  12067-3 0  9991,2 52840  53.2149 128.3434 0001414  81.6355 278.4797 15.08837172 45722,6917.889,95.438,540.732,538.776,0.0
52840.0,STARLINK-4049,PAYLOAD,2023-04-11 10:58:14,15.08841047,0.0001399,53.2158,127.155,83.4335,276.6816,0.00012814,1.752e-05,0.0,0 STARLINK-4049,1 52840U 22062L   23101.45711394  .00001752  00000-0  12814-3 0  9996,2 52840  53.2158 127.1550 0001399  83.4335 276.6816 15.08841047 45276,6917.877,95.437,540.71,538.774,0.0
52840.0,STARLINK-4049,PAYLOAD,2023-04-12 07:38:15,15.088391,0.0001466,53.2159,123.2896,78.834,281.2816,1.7076e-05,-1.6e-07,0.0,0 STARLINK-4049,1 52840U 22062L   23102.31823895 -.00000016  00000-0  17076-4 0  9991,2 52840  53.2159 123.2896 0001466  78.8340 281.2816 15.08839100 45893,6917.883,95.438,540.762,538.734,0.0
52840.0,STARLINK-4049,PAYLOAD,2023-04-13 07:29:02,15.08841987,0.0001479,53.216,118.8282,86.6728,273.4433,5.9367e-05,6.57e-06,0.0,0 STARLINK-4049,1 52840U 22062L   23103.31183605  .00000657  00000-0  59367-4 0  9999,2 52840  53.2160 118.8282 0001479  86.6728 273.4433 15.08841987 45552,6917.874,95.437,540.762,538.716,0.0
52840.0,STARLINK-4049,PAYLOAD,2023-04-13 12:15:11,15.08845627,0.0001484,53.2157,117.9356,89.535,270.5813,8.7684e-05,1.108e-05,0.0,0 STARLINK-4049,1 52840U 22062L   23103.51055245  .00001108  00000-0  87684-4 0  9994,2 52840  53.2157 117.9356 0001484  89.5350 270.5813 15.08845627 46072,6917.863,95.437,540.755,538.702,0.0
52840.0,STARLINK-4049,PAYLOAD,2023-04-14 07:19:49,15.088388,0.0001426,53.216,114.3674,89.64,270.4755,6.8989e-05,8.1e-06,0.0,0 STARLINK-4049,1 52840U 22062L   23104.30543886  .00000810  00000-0  68989-4 0  9991,2 52840  53.2160 114.3674 0001426  89.6400 270.4755 15.08838800 46195,6917.884,95.438,540.736,538.763,0.0
52840.0,STARLINK-4049,PAYLOAD,2023-04-14 10:30:36,15.08840243,0.0001503,53.2152,113.7703,105.175,254.9409,4.1621e-05,3.74e-06,0.0,0 STARLINK-4049,1 52840U 22062L   23104.43791767  .00000374  00000-0  41621-4 0  9997,2 52840  53.2152 113.7703 0001503 105.1750 254.9409 15.08840243 45725,6917.88,95.438,540.784,538.705,0.0
52840.0,STARLINK-4049,PAYLOAD,2023-04-15 07:10:36,15.08841866,0.0001373,53.2154,109.9049,95.4544,264.6604,5.3717e-05,5.67e-06,0.0,0 STARLINK-4049,1 52840U 22062L   23105.29903889  .00000567  00000-0  53717-4 0  9995,2 52840  53.2154 109.9049 0001373  95.4544 264.6604 15.08841866 45855,6917.875,95.437,540.69,538.79,0.0
52840.0,STARLINK-4049,PAYLOAD,2023-04-15 16:42:55,15.08842307,0.0001296,53.2155,108.1215,102.641,257.4727,1.3005e-05,-8.1e-07,0.0,0 STARLINK-4049,1 52840U 22062L   23105.69647925 -.00000081  00000-0  13005-4 0  9993,2 52840  53.2155 108.1215 0001296 102.6410 257.4727 15.08842307 45913,6917.873,95.437,540.635,538.842,0.0
